{
  "type": "FeatureCollection",
  "generator": "overpass-turbo",
  "copyright": "The data included in this document is from www.openstreetmap.org. The data is made available under ODbL.",
  "timestamp": "2016-03-20T14:43:02Z",
  "features": [
    {
      "type": "Feature",
      "id": "node/288036753",
      "properties": {
        "@id": "node/288036753",
        "addr:housenumber": "13",
        "addr:postcode": "AB11 6NU",
        "addr:street": "Hadden Street",
        "amenity": "pub",
        "fhrs:id": "593181",
        "name": "The Market Arms",
        "source:addr": "https://www.facebook.com/TheMarketArmsAberdeen"
      },
      "geometry": {
        "type": "Point",
        "coordinates": [
          -2.0978495,
          57.1459838
        ]
      }
    },
    {
      "type": "Feature",
      "id": "node/290629629",
      "properties": {
        "@id": "node/290629629",
        "addr:housenumber": "504",
        "addr:postcode": "AB10 1TT",
        "addr:street": "Union Street",
        "amenity": "pub",
        "fhrs:id": "150676",
        "name": "McGinty's Pub",
        "source:addr": "fhrs"
      },
      "geometry": {
        "type": "Point",
        "coordinates": [
          -2.1117403,
          57.143027
        ]
      }
    },
    {
      "type": "Feature",
      "id": "node/290633283",
      "properties": {
        "@id": "node/290633283",
        "addr:housenumber": "367-369",
        "addr:postcode": "AB11 6BT",
        "addr:street": "Union Street",
        "amenity": "restaurant",
        "cuisine": "spanish",
        "fhrs:id": "148183",
        "name": "La Tasca",
        "source:addr": "fhrs"
      },
      "geometry": {
        "type": "Point",
        "coordinates": [
          -2.1079242,
          57.1438268
        ]
      }
    },
    {
      "type": "Feature",
      "id": "node/290633285",
      "properties": {
        "@id": "node/290633285",
        "addr:housenumber": "254",
        "addr:postcode": "AB10 1TN",
        "addr:street": "Union Street",
        "amenity": "pub",
        "fhrs:id": "131094",
        "name": "Filling Station",
        "source:addr": "fhrs"
      },
      "geometry": {
        "type": "Point",
        "coordinates": [
          -2.1080526,
          57.1440864
        ]
      }
    },
    {
      "type": "Feature",
      "id": "node/290633289",
      "properties": {
        "@id": "node/290633289",
        "addr:housenumber": "208",
        "addr:postcode": "AB10 1DW",
        "addr:street": "Union Street",
        "amenity": "cafe",
        "fhrs:id": "132833",
        "name": "Starbucks",
        "source:addr": "fhrs"
      },
      "geometry": {
        "type": "Point",
        "coordinates": [
          -2.1059263,
          57.1448032
        ]
      }
    },
    {
      "type": "Feature",
      "id": "node/290633292",
      "properties": {
        "@id": "node/290633292",
        "addr:housenumber": "221",
        "addr:postcode": "AB11 6BQ",
        "addr:street": "Union Street",
        "amenity": "fast_food",
        "name": "Burger King",
        "source": "knowledge",
        "source:addr": "fhrs"
      },
      "geometry": {
        "type": "Point",
        "coordinates": [
          -2.1047659,
          57.1446809
        ]
      }
    },
    {
      "type": "Feature",
      "id": "node/469830197",
      "properties": {
        "@id": "node/469830197",
        "addr:city": "Aberdeen",
        "addr:housenumber": "2",
        "addr:postcode": "AB11 5AA",
        "addr:street": "Trinity Quay",
        "amenity": "pub",
        "fhrs:id": "137254",
        "name": "Krakatoa",
        "old_name": "The Moorings Bar",
        "source:addr": "fhrs"
      },
      "geometry": {
        "type": "Point",
        "coordinates": [
          -2.0949137,
          57.1458075
        ]
      }
    },
    {
      "type": "Feature",
      "id": "node/503552904",
      "properties": {
        "@id": "node/503552904",
        "addr:housenumber": "117-119",
        "addr:postcode": "AB11 6BH",
        "addr:street": "Union Street",
        "amenity": "fast_food",
        "cuisine": "burger",
        "fhrs:id": "148839",
        "name": "McDonald's",
        "source:addr": "fhrs"
      },
      "geometry": {
        "type": "Point",
        "coordinates": [
          -2.099192,
          57.1462654
        ]
      }
    },
    {
      "type": "Feature",
      "id": "node/595490590",
      "properties": {
        "@id": "node/595490590",
        "addr:housenumber": "4",
        "addr:postcode": "AB10 1JE",
        "addr:street": "Belmont Street",
        "amenity": "bar",
        "contact:website": "http://thetipplinghouse.com/",
        "name": "The Tippling House",
        "note": "describes itself as a bar, not pub?",
        "source": "survey; website"
      },
      "geometry": {
        "type": "Point",
        "coordinates": [
          -2.1006415,
          57.1462497
        ]
      }
    },
    {
      "type": "Feature",
      "id": "node/595490591",
      "properties": {
        "@id": "node/595490591",
        "addr:housenumber": "1",
        "addr:postcode": "AB10 1JR",
        "addr:street": "Belmont Street",
        "alt_name": "Drummonds",
        "amenity": "pub",
        "contact:website": "http://www.cafedrummond.com",
        "fhrs:id": "41287",
        "name": "Cafe Drummond",
        "source": "survey; bing",
        "source:addr": "FHRS"
      },
      "geometry": {
        "type": "Point",
        "coordinates": [
          -2.1010012,
          57.1462939
        ]
      }
    },
    {
      "type": "Feature",
      "id": "node/595490592",
      "properties": {
        "@id": "node/595490592",
        "addr:housenumber": "14-18",
        "addr:postcode": "AB10 1JH",
        "addr:street": "Belmont Street",
        "amenity": "pub",
        "contact:website": "http://www.eerie-pubs.co.uk/slains-castle",
        "fhrs:id": "145222",
        "food": "yes",
        "name": "Slains Castle",
        "source": "knowledge",
        "source:addr": "FHRS"
      },
      "geometry": {
        "type": "Point",
        "coordinates": [
          -2.1009265,
          57.146578
        ]
      }
    },
    {
      "type": "Feature",
      "id": "node/595490593",
      "properties": {
        "@id": "node/595490593",
        "addr:housenumber": "19",
        "addr:postcode": "AB10 1JR",
        "addr:street": "Belmont Street",
        "amenity": "pub",
        "fhrs:id": "41637",
        "name": "Wild Boar",
        "source": "survey",
        "source:addr": "fhrs"
      },
      "geometry": {
        "type": "Point",
        "coordinates": [
          -2.101313,
          57.1466848
        ]
      }
    },
    {
      "type": "Feature",
      "id": "node/595490594",
      "properties": {
        "@id": "node/595490594",
        "addr:housenumber": "33",
        "addr:postcode": "AB10 1JS",
        "addr:street": "Belmont Street",
        "amenity": "pub",
        "fhrs:id": "136815",
        "name": "The Priory",
        "source:addr": "FHRS"
      },
      "geometry": {
        "type": "Point",
        "coordinates": [
          -2.1016589,
          57.1469273
        ]
      }
    },
    {
      "type": "Feature",
      "id": "node/595490597",
      "properties": {
        "@id": "node/595490597",
        "addr:housenumber": "62",
        "addr:postcode": "AB11 5BY",
        "addr:street": "Shiprow",
        "disused:amenity": "pub",
        "fhrs:id": "592328",
        "old_name": "Malone's Late Bar",
        "source": "fhrs",
        "source:addr": "fhrs"
      },
      "geometry": {
        "type": "Point",
        "coordinates": [
          -2.0951389,
          57.1462572
        ]
      }
    },
    {
      "type": "Feature",
      "id": "node/595490598",
      "properties": {
        "@id": "node/595490598",
        "addr:housenumber": "1-2",
        "addr:postcode": "AB11 5BY",
        "addr:street": "Shiprow",
        "disused:amenity": "pub",
        "fhrs:id": "593330",
        "name": "Tiger Tiger",
        "source": "knowledge",
        "source:addr": "fhrs"
      },
      "geometry": {
        "type": "Point",
        "coordinates": [
          -2.0947672,
          57.1470107
        ]
      }
    },
    {
      "type": "Feature",
      "id": "node/595491199",
      "properties": {
        "@id": "node/595491199",
        "addr:city": "Aberdeen",
        "addr:country": "GB",
        "addr:housenumber": "36-40",
        "addr:postcode": "AB11 5PL",
        "addr:street": "Market Street",
        "name": "Best One",
        "phone": "+44 1224 571 142",
        "shop": "convenience"
      },
      "geometry": {
        "type": "Point",
        "coordinates": [
          -2.0964261,
          57.1458707
        ]
      }
    },
    {
      "type": "Feature",
      "id": "node/595491206",
      "properties": {
        "@id": "node/595491206",
        "addr:housenumber": "49",
        "addr:postcode": "AB10 1JS",
        "addr:street": "Belmont Street",
        "amenity": "cinema",
        "contact:website": "http://www.belmontfilmhouse.com/",
        "fhrs:id": "134445",
        "name": "Belmont Filmhouse",
        "source": "knowledge",
        "source:addr": "FHRS"
      },
      "geometry": {
        "type": "Point",
        "coordinates": [
          -2.1020781,
          57.1473347
        ]
      }
    },
    {
      "type": "Feature",
      "id": "node/819225318",
      "properties": {
        "@id": "node/819225318",
        "addr:housenumber": "77-79",
        "addr:postcode": "AB10 1QD",
        "addr:street": "Skene Street",
        "amenity": "restaurant",
        "cuisine": "turkish",
        "fhrs:id": "103010",
        "name": "Nargile",
        "source:addr": "fhrs"
      },
      "geometry": {
        "type": "Point",
        "coordinates": [
          -2.108157,
          57.1474869
        ]
      }
    },
    {
      "type": "Feature",
      "id": "node/864934314",
      "properties": {
        "@id": "node/864934314",
        "addr:housenumber": "120",
        "addr:postcode": "AB25 1NX",
        "addr:street": "Rosemount Viaduct",
        "fhrs:id": "101658",
        "name": "Spar",
        "shop": "convenience",
        "source:addr": "fhrs"
      },
      "geometry": {
        "type": "Point",
        "coordinates": [
          -2.1101373,
          57.1490311
        ]
      }
    },
    {
      "type": "Feature",
      "id": "node/864934541",
      "properties": {
        "@id": "node/864934541",
        "addr:housenumber": "67-69",
        "addr:postcode": "AB25 1MR",
        "addr:street": "Rosemount Viaduct",
        "amenity": "pub",
        "fhrs:id": "101454",
        "name": "Masada Bar",
        "note:source:addr": "these have same entry in fhrs",
        "source:addr": "fhrs"
      },
      "geometry": {
        "type": "Point",
        "coordinates": [
          -2.1092637,
          57.148273
        ]
      }
    },
    {
      "type": "Feature",
      "id": "node/864934925",
      "properties": {
        "@id": "node/864934925",
        "FIXME": "Is this a bar?",
        "addr:housenumber": "67-69",
        "addr:postcode": "AB25 1MR",
        "addr:street": "Rosemount Viaduct",
        "fhrs:id": "101454",
        "name": "The Rusty Nail",
        "note:source:addr": "these have same entry in fhrs",
        "source:addr": "fhrs"
      },
      "geometry": {
        "type": "Point",
        "coordinates": [
          -2.1091864,
          57.1482352
        ]
      }
    },
    {
      "type": "Feature",
      "id": "node/924673982",
      "properties": {
        "@id": "node/924673982",
        "addr:housenumber": "22",
        "addr:postcode": "AB10 1JH",
        "addr:street": "Belmont Street",
        "amenity": "cafe",
        "fhrs:id": "142426",
        "internet_access": "terminal",
        "internet_access:fee": "yes",
        "name": "Books & Beans",
        "source": "knowledge",
        "source:addr": "fhrs"
      },
      "geometry": {
        "type": "Point",
        "coordinates": [
          -2.1013686,
          57.1470182
        ]
      }
    },
    {
      "type": "Feature",
      "id": "node/963625080",
      "properties": {
        "@id": "node/963625080",
        "addr:housenumber": "122",
        "addr:postcode": "AB10 1SU",
        "addr:street": "Huntly Street",
        "contact:website": "http://www.millenniumhotels.co.uk/copthorneaberdeen",
        "fhrs:id": "94716",
        "name": "Copthorne Hotel Aberdeen",
        "operator": "Millennium & Copthorne Hotels plc",
        "source:addr": "fhrs",
        "tourism": "hotel"
      },
      "geometry": {
        "type": "Point",
        "coordinates": [
          -2.1119192,
          57.145969
        ]
      }
    },
    {
      "type": "Feature",
      "id": "node/1066653375",
      "properties": {
        "@id": "node/1066653375",
        "addr:city": "Aberdeen",
        "addr:housenumber": "1",
        "addr:postcode": "AB10 1JF",
        "addr:street": "Gaelic Lane",
        "amenity": "cafe",
        "cuisine": "coffee_shop",
        "fhrs:id": "40308",
        "name": "The Coffee House",
        "source": "knowledge",
        "source:addr": "FHRS",
        "wifi": "free"
      },
      "geometry": {
        "type": "Point",
        "coordinates": [
          -2.1005803,
          57.1465015
        ]
      }
    },
    {
      "type": "Feature",
      "id": "node/1081349474",
      "properties": {
        "@id": "node/1081349474",
        "addr:housenumber": "6",
        "addr:postcode": "AB10 1JG",
        "addr:street": "Little Belmont Street",
        "amenity": "pub",
        "contact:website": "http://www.macamerons-aberdeen.co.uk/",
        "fhrs:id": "198388",
        "name": "Ma Cameron's",
        "operator": "Belhaven",
        "source": "knowledge",
        "source:addr": "FHRS"
      },
      "geometry": {
        "type": "Point",
        "coordinates": [
          -2.1004919,
          57.1470464
        ]
      }
    },
    {
      "type": "Feature",
      "id": "node/1105369534",
      "properties": {
        "@id": "node/1105369534",
        "addr:housenumber": "402-404",
        "addr:postcode": "AB10 1TQ",
        "addr:street": "Union Street",
        "amenity": "restaurant",
        "cuisine": "italian",
        "fhrs:id": "130258",
        "name": "Pizza Express",
        "source:addr": "fhrs"
      },
      "geometry": {
        "type": "Point",
        "coordinates": [
          -2.1090773,
          57.1438377
        ]
      }
    },
    {
      "type": "Feature",
      "id": "node/1105369618",
      "properties": {
        "@id": "node/1105369618",
        "addr:housenumber": "62-66",
        "addr:postcode": "AB10 1SA",
        "addr:street": "Union Row",
        "amenity": "restaurant",
        "cuisine": "italian",
        "fhrs:id": "135502",
        "name": "Rustico",
        "source:addr": "fhrs",
        "website": "http://www.rustico-restaurant.co.uk/"
      },
      "geometry": {
        "type": "Point",
        "coordinates": [
          -2.1090666,
          57.144379
        ]
      }
    },
    {
      "type": "Feature",
      "id": "node/1314114275",
      "properties": {
        "@id": "node/1314114275",
        "addr:housenumber": "21",
        "addr:postcode": "AB10 1TX",
        "addr:street": "Rose Street",
        "amenity": "restaurant",
        "cuisine": "thai",
        "fhrs:id": "198271",
        "int_name": "Baan Thai",
        "name": "Bhan Thai",
        "note": "addr already present before fhrs but fhrs provides confirmation",
        "source": "Local Knowledge",
        "source:addr": "fhrs"
      },
      "geometry": {
        "type": "Point",
        "coordinates": [
          -2.1112778,
          57.1437908
        ]
      }
    },
    {
      "type": "Feature",
      "id": "node/1314114296",
      "properties": {
        "@id": "node/1314114296",
        "addr:housenumber": "204",
        "addr:postcode": "AB10 1QS",
        "addr:street": "Union Street",
        "fhrs:id": "42681",
        "name": "The Co-operative Food",
        "shop": "supermarket",
        "source:addr": "fhrs"
      },
      "geometry": {
        "type": "Point",
        "coordinates": [
          -2.1051852,
          57.1448868
        ]
      }
    },
    {
      "type": "Feature",
      "id": "node/1314114301",
      "properties": {
        "@id": "node/1314114301",
        "addr:housenumber": "13",
        "addr:postcode": "AB10 1TX",
        "addr:street": "Rose Street",
        "amenity": "restaurant",
        "cuisine": "indian",
        "fhrs:id": "147352",
        "name": "Light of Bengal",
        "source:addr": "fhrs"
      },
      "geometry": {
        "type": "Point",
        "coordinates": [
          -2.1110391,
          57.1435521
        ]
      }
    },
    {
      "type": "Feature",
      "id": "node/1314114329",
      "properties": {
        "@id": "node/1314114329",
        "addr:housenumber": "206",
        "addr:postcode": "AB10 1QS",
        "addr:street": "Union Street",
        "fhrs:id": "41057",
        "name": "Sainsbury's",
        "shop": "supermarket",
        "source:addr": "fhrs"
      },
      "geometry": {
        "type": "Point",
        "coordinates": [
          -2.1054118,
          57.1448225
        ]
      }
    },
    {
      "type": "Feature",
      "id": "node/1314114348",
      "properties": {
        "@id": "node/1314114348",
        "addr:housenumber": "19",
        "addr:postcode": "AB10 1TX",
        "addr:street": "Rose Street",
        "alt_name": "Shahbaaz Tandoori",
        "amenity": "restaurant",
        "cuisine": "indian",
        "fhrs:id": "198298",
        "name": "Shabaaz",
        "source:addr": "fhrs",
        "source:alt_name": "fhrs"
      },
      "geometry": {
        "type": "Point",
        "coordinates": [
          -2.1111813,
          57.1437311
        ]
      }
    },
    {
      "type": "Feature",
      "id": "node/1383400114",
      "properties": {
        "@id": "node/1383400114",
        "addr:housenumber": "476",
        "addr:postcode": "AB10 1TS",
        "addr:street": "Union Street",
        "amenity": "restaurant",
        "cuisine": "indian",
        "fhrs:id": "41399",
        "name": "Cinnamon Indian Restaraunt",
        "source:addr": "fhrs"
      },
      "geometry": {
        "type": "Point",
        "coordinates": [
          -2.1114699,
          57.1431403
        ]
      }
    },
    {
      "type": "Feature",
      "id": "node/1439226266",
      "properties": {
        "@id": "node/1439226266",
        "addr:housenumber": "52",
        "addr:postcode": "AB11 6PE",
        "addr:street": "The Green",
        "amenity": "restaurant",
        "fhrs:id": "120232",
        "name": "Cafe 52",
        "source:addr": "fhrs"
      },
      "geometry": {
        "type": "Point",
        "coordinates": [
          -2.0992931,
          57.146077
        ]
      }
    },
    {
      "type": "Feature",
      "id": "node/1457662827",
      "properties": {
        "@id": "node/1457662827",
        "addr:housenumber": "7",
        "addr:postcode": "AB10 1JG",
        "addr:street": "Little Belmont Street",
        "amenity": "restaurant",
        "contact:website": "http://www.poldinos.co.uk/",
        "cuisine": "italian",
        "fhrs:id": "97679",
        "name": "Poldino's",
        "source": "knowledge",
        "source:addr": "FHRS"
      },
      "geometry": {
        "type": "Point",
        "coordinates": [
          -2.1004905,
          57.1468774
        ]
      }
    },
    {
      "type": "Feature",
      "id": "node/1907704038",
      "properties": {
        "@id": "node/1907704038",
        "addr:housenumber": "50-52",
        "addr:postcode": "AB25 1NT",
        "addr:street": "Rosemount Viaduct",
        "amenity": "cafe",
        "cuisine": "coffee_shop",
        "fhrs:id": "147189",
        "name": "The Bread Maker",
        "source:addr": "fhrs",
        "website": "http://www.thebreadmaker.org.uk/"
      },
      "geometry": {
        "type": "Point",
        "coordinates": [
          -2.1084548,
          57.1481771
        ]
      }
    },
    {
      "type": "Feature",
      "id": "node/1907704059",
      "properties": {
        "@id": "node/1907704059",
        "addr:housenumber": "499-501",
        "addr:postcode": "AB11 6DB",
        "addr:street": "Union Street",
        "fhrs:id": "40372",
        "name": "Tesco Express",
        "shop": "convenience",
        "source:addr": "fhrs"
      },
      "geometry": {
        "type": "Point",
        "coordinates": [
          -2.1113998,
          57.142895
        ]
      }
    },
    {
      "type": "Feature",
      "id": "node/1907704061",
      "properties": {
        "@id": "node/1907704061",
        "addr:housenumber": "33",
        "addr:postcode": "AB11 6PH",
        "addr:street": "Exchange Street",
        "amenity": "restaurant",
        "fhrs:id": "41614",
        "name": "MUSA",
        "note": "addr already present before fhrs but fhrs provides confirmation",
        "source:addr": "fhrs",
        "website": "http://www.musaaberdeen.com"
      },
      "geometry": {
        "type": "Point",
        "coordinates": [
          -2.0966316,
          57.1455114
        ]
      }
    },
    {
      "type": "Feature",
      "id": "node/2302816255",
      "properties": {
        "@id": "node/2302816255",
        "addr:housenumber": "7",
        "addr:postcode": "AB10 1HF",
        "addr:street": "St Nicholas Lane",
        "amenity": "pub",
        "fixme": "position is approximate, needs survey",
        "name": "Prince of Wales",
        "operator": "Belhaven",
        "source": "knowledge",
        "source:addr": "fhrs",
        "source:position": "knowledge; estimated"
      },
      "geometry": {
        "type": "Point",
        "coordinates": [
          -2.0983049,
          57.1470218
        ]
      }
    },
    {
      "type": "Feature",
      "id": "node/2466580234",
      "properties": {
        "@id": "node/2466580234",
        "addr:housenumber": "31-35",
        "addr:postcode": "AB25 1NQ",
        "addr:street": "Rosemount Viaduct",
        "amenity": "pub",
        "name": "Cellar 35",
        "note:source:addr": "Implied via Noose & Monkey",
        "source": "survey",
        "source:addr": "FHRS",
        "wheelchair": "no"
      },
      "geometry": {
        "type": "Point",
        "coordinates": [
          -2.1080507,
          57.1478132
        ]
      }
    },
    {
      "type": "Feature",
      "id": "node/2466580235",
      "properties": {
        "@id": "node/2466580235",
        "addr:housenumber": "31-35",
        "addr:postcode": "AB25 1NQ",
        "addr:street": "Rosemount Viaduct",
        "amenity": "pub",
        "contact:website": "http://www.nooseandmonkey.com/",
        "fhrs:id": "42191",
        "food": "yes",
        "name": "Noose & Monkey",
        "source": "survey",
        "source:addr": "FHRS"
      },
      "geometry": {
        "type": "Point",
        "coordinates": [
          -2.1079699,
          57.1477906
        ]
      }
    },
    {
      "type": "Feature",
      "id": "node/2466666880",
      "properties": {
        "@id": "node/2466666880",
        "addr:housenumber": "52",
        "addr:postcode": "AB11 5BB",
        "addr:street": "Castle Street",
        "amenity": "pub",
        "contact:website": "http://www.oldblackfriars-aberdeen.co.uk/",
        "fhrs:id": "101471",
        "name": "Old Blackfriars",
        "source": "knowledge",
        "source:addr": "FHRS",
        "wheelchair": "yes"
      },
      "geometry": {
        "type": "Point",
        "coordinates": [
          -2.093189,
          57.1477986
        ]
      }
    },
    {
      "type": "Feature",
      "id": "node/2468774598",
      "properties": {
        "@id": "node/2468774598",
        "addr:housenumber": "32",
        "addr:postcode": "AB11 5BB",
        "addr:street": "Castle Street",
        "alt_name": "The Carlton",
        "alt_name_2": "Carlton Bar",
        "amenity": "pub",
        "fhrs:id": "43805",
        "name": "Carlton",
        "source": "survey",
        "source:addr": "FHRS"
      },
      "geometry": {
        "type": "Point",
        "coordinates": [
          -2.0919299,
          57.1481362
        ]
      }
    },
    {
      "type": "Feature",
      "id": "node/2468795112",
      "properties": {
        "@id": "node/2468795112",
        "addr:city": "Aberdeen",
        "addr:housenumber": "2-10",
        "addr:postcode": "AB24 5AX",
        "addr:street": "King Street",
        "amenity": "restaurant",
        "contact:website": "http://www.lalombarda.co.uk/",
        "cuisine": "italian",
        "fhrs:id": "96342",
        "name": "La Lombarda",
        "source": "knowledge",
        "source:addr": "FHRS"
      },
      "geometry": {
        "type": "Point",
        "coordinates": [
          -2.0932093,
          57.1483547
        ]
      }
    },
    {
      "type": "Feature",
      "id": "node/2468805333",
      "properties": {
        "@id": "node/2468805333",
        "addr:housenumber": "44",
        "addr:postcode": "AB10 1SP",
        "addr:street": "Chapel Street",
        "fixme": "POSITION APPROXIMATE RESURVEY",
        "name": "Ross's",
        "shop": "bakery",
        "source": "survey; FHRS",
        "source:addr": "FHRS",
        "source:addr:housenumber": "food packaging"
      },
      "geometry": {
        "type": "Point",
        "coordinates": [
          -2.1098264,
          57.144594
        ]
      }
    },
    {
      "type": "Feature",
      "id": "node/2469455799",
      "properties": {
        "@id": "node/2469455799",
        "addr:housenumber": "5",
        "addr:postcode": "AB11 5BW",
        "addr:street": "Exchequer Row",
        "amenity": "casino",
        "contact:website": "http://www.grosvenorcasinos.com/local-casinos/aberdeen",
        "fhrs:id": "149991",
        "name": "Grosvenor Casino",
        "source": "knowledge",
        "source:addr": "FHRS"
      },
      "geometry": {
        "type": "Point",
        "coordinates": [
          -2.0940914,
          57.1473587
        ]
      }
    },
    {
      "type": "Feature",
      "id": "node/2469455800",
      "properties": {
        "@id": "node/2469455800",
        "addr:housenumber": "55-56",
        "addr:postcode": "AB11 5BB",
        "addr:street": "Castle Street",
        "amenity": "pub",
        "fhrs:id": "571507",
        "fixme": "POSITION APPROXIMATE RESURVEY",
        "name": "The Wig",
        "source": "survey; knowledge; FHRS",
        "source:addr": "FHRS"
      },
      "geometry": {
        "type": "Point",
        "coordinates": [
          -2.0937919,
          57.1475673
        ]
      }
    },
    {
      "type": "Feature",
      "id": "node/2469457953",
      "properties": {
        "@id": "node/2469457953",
        "addr:housenumber": "4-6",
        "addr:postcode": "AB11 5BW",
        "addr:street": "Exchequer Row",
        "disused:amenity": "cafe",
        "fhrs:id": "136123",
        "old_name": "Henrys",
        "source": "knowledge",
        "source:addr": "FHRS"
      },
      "geometry": {
        "type": "Point",
        "coordinates": [
          -2.0945895,
          57.1474257
        ]
      }
    },
    {
      "type": "Feature",
      "id": "node/2469471148",
      "properties": {
        "@id": "node/2469471148",
        "addr:housenumber": "37-39",
        "addr:postcode": "AB10 1AU",
        "addr:street": "Netherkirkgate",
        "contact:website": "http://www.thecityaberdeen.co.uk/",
        "disused:amenity": "cafe",
        "fhrs:id": "150689",
        "name": "The City",
        "source:addr": "FHRS"
      },
      "geometry": {
        "type": "Point",
        "coordinates": [
          -2.0962654,
          57.1476159
        ]
      }
    },
    {
      "type": "Feature",
      "id": "node/2476628819",
      "properties": {
        "@id": "node/2476628819",
        "addr:housenumber": "16",
        "addr:postcode": "AB10 1JG",
        "addr:street": "Little Belmont Street",
        "amenity": "fast_food",
        "fhrs:id": "135569",
        "name": "Little Belmont Hut",
        "source": "knowledge",
        "source:addr": "FHRS"
      },
      "geometry": {
        "type": "Point",
        "coordinates": [
          -2.1009973,
          57.146913
        ]
      }
    },
    {
      "type": "Feature",
      "id": "node/2476628820",
      "properties": {
        "@id": "node/2476628820",
        "addr:housenumber": "2",
        "addr:postcode": "AB10 1JG",
        "addr:street": "Little Belmont Street",
        "fhrs:id": "97643",
        "name": "Mac Beans",
        "note": "coffee seller?",
        "shop": "coffee",
        "source:addr": "FHRS"
      },
      "geometry": {
        "type": "Point",
        "coordinates": [
          -2.1002152,
          57.147099
        ]
      }
    },
    {
      "type": "Feature",
      "id": "node/2476628821",
      "properties": {
        "@id": "node/2476628821",
        "addr:housenumber": "9",
        "addr:postcode": "AB10 1JN",
        "addr:street": "Back Wynd",
        "amenity": "pub",
        "fhrs:id": "82977",
        "name": "O'Neill's",
        "source:addr": "FHRS"
      },
      "geometry": {
        "type": "Point",
        "coordinates": [
          -2.1001086,
          57.1468428
        ]
      }
    },
    {
      "type": "Feature",
      "id": "node/2476628822",
      "properties": {
        "@id": "node/2476628822",
        "addr:housenumber": "5",
        "addr:postcode": "AB10 1JN",
        "addr:street": "Back Wynd",
        "fhrs:id": "138362",
        "fixme": "position is approximate, needs survey",
        "name": "Oxfam Bookshop",
        "shop": "books",
        "source": "knowledge; FHRS",
        "source:addr": "FHRS"
      },
      "geometry": {
        "type": "Point",
        "coordinates": [
          -2.1000151,
          57.1466488
        ]
      }
    },
    {
      "type": "Feature",
      "id": "node/2476628823",
      "properties": {
        "@id": "node/2476628823",
        "addr:housenumber": "14",
        "addr:postcode": "AB10 1JP",
        "addr:street": "Back Wynd",
        "amenity": "fast_food",
        "fhrs:id": "144129",
        "fixme": "position is approximate, needs survey",
        "name": "Subway",
        "source": "knowledge",
        "source:addr": "FHRS",
        "toilets:wheelchair": "yes",
        "wheelchair": "yes"
      },
      "geometry": {
        "type": "Point",
        "coordinates": [
          -2.1003436,
          57.1473677
        ]
      }
    },
    {
      "type": "Feature",
      "id": "node/2497822346",
      "properties": {
        "@id": "node/2497822346",
        "addr:housenumber": "53",
        "addr:postcode": "AB11 6EN",
        "addr:street": "Langstane Place",
        "amenity": "restaurant",
        "contact:website": "http://www.yatai.co.uk/",
        "cuisine": "japanese",
        "fhrs:id": "492177",
        "fixme": "position is very approximate",
        "name": "Yatai",
        "source": "knowledge",
        "source:addr": "FHRS"
      },
      "geometry": {
        "type": "Point",
        "coordinates": [
          -2.1072117,
          57.1432347
        ]
      }
    },
    {
      "type": "Feature",
      "id": "node/2505838863",
      "properties": {
        "@id": "node/2505838863",
        "addr:city": "Aberdeen",
        "addr:country": "GB",
        "addr:housenumber": "35a",
        "addr:postcode": "AB11 5BN",
        "addr:street": "Union Street",
        "alt_name": "Aberdeen Hackspace Makerspace Hackerspace 57N",
        "contact:phone": "+447787013354",
        "contact:website": "http://57north.co/",
        "leisure": "hackerspace",
        "name": "57North Hacklab",
        "old_name": "hackerdeen",
        "opening_hours": "Tu 19:00-22:00",
        "source": "Website",
        "source:addr": "http://57north.co/",
        "source:wheelchair": "survey",
        "wheelchair": "no"
      },
      "geometry": {
        "type": "Point",
        "coordinates": [
          -2.0956228,
          57.1472615
        ]
      }
    },
    {
      "type": "Feature",
      "id": "node/2514365568",
      "properties": {
        "@id": "node/2514365568",
        "addr:housenumber": "46-50",
        "addr:postcode": "AB10 1JQ",
        "addr:street": "Schoolhill",
        "amenity": "restaurant",
        "contact:website": "http://www.littlejohns.co.uk/",
        "fhrs:id": "83102",
        "name": "Littlejohns",
        "note": "website indicates address extends to 52",
        "source": "knowledge",
        "source:addr": "fhrs"
      },
      "geometry": {
        "type": "Point",
        "coordinates": [
          -2.1005952,
          57.1479312
        ]
      }
    },
    {
      "type": "Feature",
      "id": "node/2514390184",
      "properties": {
        "@id": "node/2514390184",
        "addr:housenumber": "57-59",
        "addr:postcode": "AB10 1AU",
        "addr:street": "Netherkirkgate",
        "amenity": "pub",
        "fhrs:id": "98654",
        "fixme": "position is approximate, needs survey; name is only from fhrs, needs confirm",
        "name": "Frigate Bar",
        "source:addr": "fhrs"
      },
      "geometry": {
        "type": "Point",
        "coordinates": [
          -2.0972862,
          57.1473997
        ]
      }
    },
    {
      "type": "Feature",
      "id": "node/2515809610",
      "properties": {
        "@id": "node/2515809610",
        "addr:housenumber": "3-7",
        "addr:postcode": "AB11 6BG",
        "addr:street": "Union Bridge",
        "amenity": "cafe",
        "fhrs:id": "132144",
        "name": "Costa Coffee (Waterstones)",
        "source:addr": "fhrs"
      },
      "geometry": {
        "type": "Point",
        "coordinates": [
          -2.1011728,
          57.1457092
        ]
      }
    },
    {
      "type": "Feature",
      "id": "node/2515809611",
      "properties": {
        "@id": "node/2515809611",
        "addr:housenumber": "3-7",
        "addr:postcode": "AB11 6BG",
        "addr:street": "Union Bridge",
        "fhrs:id": "146880",
        "name": "Waterstones",
        "shop": "books",
        "source:addr": "fhrs"
      },
      "geometry": {
        "type": "Point",
        "coordinates": [
          -2.1012156,
          57.1457613
        ]
      }
    },
    {
      "type": "Feature",
      "id": "node/2525781630",
      "properties": {
        "@id": "node/2525781630",
        "addr:housenumber": "18",
        "addr:postcode": "AB10 1BA",
        "addr:street": "Upperkirkgate",
        "amenity": "pub",
        "fhrs:id": "106349",
        "fixme": "position is rather approximate, on correct side of road",
        "name": "Kirkgate Bar",
        "smoking": "outside",
        "source": "survey;bing",
        "source:addr": "fhrs"
      },
      "geometry": {
        "type": "Point",
        "coordinates": [
          -2.0982038,
          57.1489646
        ]
      }
    },
    {
      "type": "Feature",
      "id": "node/2525806963",
      "properties": {
        "@id": "node/2525806963",
        "addr:housenumber": "16-18",
        "addr:postcode": "AB10 1JX",
        "addr:street": "Schoolhill",
        "amenity": "pub",
        "fhrs:id": "102282",
        "name": "Wordies Ale House",
        "source": "bing; survey",
        "source:addr": "fhrs"
      },
      "geometry": {
        "type": "Point",
        "coordinates": [
          -2.099935,
          57.1481001
        ]
      }
    },
    {
      "type": "Feature",
      "id": "node/2528832872",
      "properties": {
        "@id": "node/2528832872",
        "addr:housenumber": "6",
        "addr:postcode": "AB11 6JJ",
        "addr:street": "Bridge Street",
        "amenity": "pub",
        "fhrs:id": "139627",
        "fixme": "position not confirmed - adjacent to road arrows but not visible on bing",
        "name": "Bridge Bar",
        "source": "survey",
        "source:addr": "fhrs"
      },
      "geometry": {
        "type": "Point",
        "coordinates": [
          -2.101999,
          57.1452171
        ]
      }
    },
    {
      "type": "Feature",
      "id": "node/2528832873",
      "properties": {
        "@id": "node/2528832873",
        "addr:housenumber": "78",
        "addr:postcode": "AB11 6GN",
        "addr:street": "Guild Street",
        "contact:website": "http://www.stationhotelaberdeen.com/",
        "fhrs:id": "134422",
        "name": "Station Hotel",
        "source": "survey",
        "source:addr": "fhrs",
        "tourism": "hotel"
      },
      "geometry": {
        "type": "Point",
        "coordinates": [
          -2.0985057,
          57.1446673
        ]
      }
    },
    {
      "type": "Feature",
      "id": "node/2538430930",
      "properties": {
        "@id": "node/2538430930",
        "addr:housenumber": "24",
        "addr:postcode": "AB11 6PH",
        "addr:street": "Exchange Street",
        "amenity": "pub",
        "fhrs:id": "147073",
        "name": "Spirit Level",
        "source": "survey",
        "source:addr": "fhrs"
      },
      "geometry": {
        "type": "Point",
        "coordinates": [
          -2.0969252,
          57.145557
        ]
      }
    },
    {
      "type": "Feature",
      "id": "node/2538435218",
      "properties": {
        "@id": "node/2538435218",
        "addr:housenumber": "2-8",
        "addr:postcode": "AB11 6PH",
        "addr:street": "Exchange Street",
        "alt_name": "Cheerz Bar and Teazers Nightclub; Rabbie's Bar",
        "amenity": "bar",
        "fhrs:id": "148915",
        "fixme": "Cheerz is pub or bar? (teazers nightclub?)",
        "name": "Cheerz",
        "source": "survey",
        "source:addr": "fhrs",
        "source:alt_name": "fhrs"
      },
      "geometry": {
        "type": "Point",
        "coordinates": [
          -2.0975563,
          57.1460369
        ]
      }
    },
    {
      "type": "Feature",
      "id": "node/2538450418",
      "properties": {
        "@id": "node/2538450418",
        "addr:housenumber": "35",
        "addr:postcode": "AB11 6PH",
        "addr:street": "Exchange Street",
        "alt_name": "Wagleys Bar Lounge",
        "amenity": "bar",
        "fhrs:id": "122752",
        "fixme": "survey: pub or bar or...?",
        "name": "Wagley's",
        "source": "knowledge",
        "source:addr": "fhrs",
        "source:name": "survey"
      },
      "geometry": {
        "type": "Point",
        "coordinates": [
          -2.0964491,
          57.1454203
        ]
      }
    },
    {
      "type": "Feature",
      "id": "node/2538470790",
      "properties": {
        "@id": "node/2538470790",
        "addr:housenumber": "13-15",
        "addr:postcode": "AB11 5PY",
        "addr:street": "Market Street",
        "amenity": "pub",
        "fhrs:id": "146627",
        "fixme": "survey: pub or bar?",
        "name": "The Snuggery",
        "source:addr": "fhrs",
        "source:name": "survey"
      },
      "geometry": {
        "type": "Point",
        "coordinates": [
          -2.0967384,
          57.1464597
        ]
      }
    },
    {
      "type": "Feature",
      "id": "node/2540139237",
      "properties": {
        "@id": "node/2540139237",
        "addr:housenumber": "19",
        "addr:postcode": "AB11 5PY",
        "addr:street": "Market Street",
        "alt_name": "Jimmy Wilsons Bar; Wilsons Sports Bar",
        "amenity": "pub",
        "fhrs:id": "148801",
        "fixme": "survey: pub or bar?",
        "name": "Wilson's",
        "source": "survey",
        "source:addr": "fhrs",
        "source:alt_name": "fhrs; knowledge",
        "source:name": "survey"
      },
      "geometry": {
        "type": "Point",
        "coordinates": [
          -2.0966239,
          57.1463767
        ]
      }
    },
    {
      "type": "Feature",
      "id": "node/2540149917",
      "properties": {
        "@id": "node/2540149917",
        "addr:housenumber": "10",
        "addr:postcode": "AB11 5LY",
        "addr:street": "Trinity Street",
        "amenity": "pub",
        "fhrs:id": "65665",
        "name": "Aitchie's Ale House",
        "source:addr": "fhrs"
      },
      "geometry": {
        "type": "Point",
        "coordinates": [
          -2.0981466,
          57.1451035
        ]
      }
    },
    {
      "type": "Feature",
      "id": "node/2558612355",
      "properties": {
        "@id": "node/2558612355",
        "addr:housenumber": "9",
        "addr:postcode": "AB10 1JR",
        "addr:street": "Belmont Street",
        "fhrs:id": "40313",
        "name": "City Centre Hotel",
        "note": "Part of Siberia Bar?",
        "source": "knowledge; fhrs",
        "source:addr": "fhrs",
        "tourism": "hotel"
      },
      "geometry": {
        "type": "Point",
        "coordinates": [
          -2.1011753,
          57.1464592
        ]
      }
    },
    {
      "type": "Feature",
      "id": "node/2558612366",
      "properties": {
        "@id": "node/2558612366",
        "addr:housenumber": "47",
        "addr:postcode": "AB10 1JS",
        "addr:street": "Belmont Street",
        "amenity": "restaurant",
        "cuisine": "pizza",
        "fhrs:id": "149844",
        "name": "Pizza Express",
        "source": "knowledge",
        "source:addr": "fhrs"
      },
      "geometry": {
        "type": "Point",
        "coordinates": [
          -2.1019463,
          57.1472919
        ]
      }
    },
    {
      "type": "Feature",
      "id": "node/2558612372",
      "properties": {
        "@id": "node/2558612372",
        "addr:housenumber": "25",
        "addr:postcode": "AB10 1JS",
        "addr:street": "Belmont Street",
        "amenity": "bar",
        "fhrs:id": "136963",
        "name": "Revolution",
        "source": "knowledge; FHRS",
        "source:addr": "fhrs"
      },
      "geometry": {
        "type": "Point",
        "coordinates": [
          -2.1014777,
          57.1468223
        ]
      }
    },
    {
      "type": "Feature",
      "id": "node/2558612377",
      "properties": {
        "@id": "node/2558612377",
        "addr:housenumber": "15",
        "addr:postcode": "AB10 1JR",
        "addr:street": "Belmont Street",
        "alt_name": "Shri Beema's Indian Restaurant",
        "amenity": "restaurant",
        "cuisine": "indian",
        "fhrs:id": "492164",
        "name": "Shri Beema's",
        "source": "knowledge; survey; fhrs",
        "source:addr": "fhrs"
      },
      "geometry": {
        "type": "Point",
        "coordinates": [
          -2.1012169,
          57.1465757
        ]
      }
    },
    {
      "type": "Feature",
      "id": "node/2558612383",
      "properties": {
        "@id": "node/2558612383",
        "addr:housenumber": "9",
        "addr:postcode": "AB10 1JR",
        "addr:street": "Belmont Street",
        "amenity": "bar",
        "fhrs:id": "83726",
        "name": "Siberia Bar",
        "note": "Connected to City Centre hotel?",
        "source": "knowledge; fhrs",
        "source:addr": "fhrs"
      },
      "geometry": {
        "type": "Point",
        "coordinates": [
          -2.1011523,
          57.146493
        ]
      }
    },
    {
      "type": "Feature",
      "id": "node/2562491752",
      "properties": {
        "@id": "node/2562491752",
        "addr:housenumber": "18",
        "addr:postcode": "AB11 6JJ",
        "addr:street": "Bridge Street",
        "amenity": "bar",
        "fhrs:id": "198345",
        "name": "Korova",
        "source": "bing; survey",
        "source:addr": "fhrs"
      },
      "geometry": {
        "type": "Point",
        "coordinates": [
          -2.1018578,
          57.14508
        ]
      }
    },
    {
      "type": "Feature",
      "id": "node/2562491753",
      "properties": {
        "@id": "node/2562491753",
        "addr:housenumber": "9",
        "addr:postcode": "AB11 6JL",
        "addr:street": "Bridge Street",
        "fhrs:id": "146961",
        "name": "Travelodge",
        "note": "travelodge on upper floors of large area of this building, with trinity centre and other shops around/below?",
        "source": "survey; bing",
        "source:addr": "fhrs",
        "tourism": "hotel"
      },
      "geometry": {
        "type": "Point",
        "coordinates": [
          -2.1016908,
          57.1453843
        ]
      }
    },
    {
      "type": "Feature",
      "id": "node/2577260918",
      "properties": {
        "@id": "node/2577260918",
        "addr:housenumber": "28",
        "addr:postcode": "AB11 5BL",
        "addr:street": "Adelphi",
        "amenity": "restaurant",
        "fhrs:id": "151112",
        "name": "La Stella",
        "source": "survey",
        "source:addr": "fhrs"
      },
      "geometry": {
        "type": "Point",
        "coordinates": [
          -2.0959266,
          57.1468595
        ]
      }
    },
    {
      "type": "Feature",
      "id": "node/2577278755",
      "properties": {
        "@id": "node/2577278755",
        "addr:housenumber": "1",
        "addr:postcode": "AB10 1JB",
        "addr:street": "Union Terrace",
        "amenity": "pub",
        "fhrs:LocalAuthorityBusinessID": "EHDC7782",
        "fhrs:id": "593292; 141395",
        "name": "The Monkey House",
        "source": "survey",
        "source:addr": "fhrs"
      },
      "geometry": {
        "type": "Point",
        "coordinates": [
          -2.1025891,
          57.1456807
        ]
      }
    },
    {
      "type": "Feature",
      "id": "node/2607284145",
      "properties": {
        "@id": "node/2607284145",
        "addr:housenumber": "213",
        "addr:postcode": "AB11 6BA",
        "addr:street": "Union Street",
        "amenity": "pub",
        "fhrs:id": "69966",
        "fixme": "position is approximate based on address; access also from Langstane place?",
        "name": "The Grill",
        "source": "fhrs",
        "source:addr": "fhrs"
      },
      "geometry": {
        "type": "Point",
        "coordinates": [
          -2.1041763,
          57.1448634
        ]
      }
    },
    {
      "type": "Feature",
      "id": "node/2634955806",
      "properties": {
        "@id": "node/2634955806",
        "addr:housenumber": "38",
        "addr:postcode": "AB10 1GD",
        "addr:street": "Union Street",
        "amenity": "restaurant",
        "cuisine": "italian",
        "name": "Jamie's Italian",
        "outdoor_seating": "no",
        "website": "http://www.jamieoliver.com/italian/aberdeen"
      },
      "geometry": {
        "type": "Point",
        "coordinates": [
          -2.09583,
          57.147441
        ]
      }
    },
    {
      "type": "Feature",
      "id": "node/2645845724",
      "properties": {
        "@id": "node/2645845724",
        "addr:housenumber": "7",
        "addr:postcode": "AB11 6ND",
        "addr:street": "Stirling Street",
        "amenity": "pub",
        "contact:phone": "01224 212373",
        "name": "CASC",
        "opening_hours": "Su-Th 11:00-00:00, Fr-Sa 11:00-01:00"
      },
      "geometry": {
        "type": "Point",
        "coordinates": [
          -2.0977501,
          57.1459015
        ]
      }
    },
    {
      "type": "Feature",
      "id": "node/2671474476",
      "properties": {
        "@id": "node/2671474476",
        "addr:housenumber": "67",
        "addr:street": "The Green",
        "contact:website": "http://www.rbmusic.co.uk/",
        "name": "R&B Music",
        "shop": "musical_instrument",
        "source": "survey; bing",
        "source:addr": "survey"
      },
      "geometry": {
        "type": "Point",
        "coordinates": [
          -2.0995867,
          57.1458136
        ]
      }
    },
    {
      "type": "Feature",
      "id": "node/2682369339",
      "properties": {
        "@id": "node/2682369339",
        "addr:housenumber": "1",
        "addr:street": "Crown Terrace",
        "amenity": "place_of_worship",
        "contact:website": "http://www.crownterracebaptistchurch.org.uk/",
        "denomination": "baptist",
        "fhrs:id": "593276",
        "fhrs:localauthoritybusinessID": "EHDC7662",
        "name": "Crown Terrace Baptist Church",
        "religion": "christian",
        "source": "bing; knowledge",
        "source:addr": "fhrs"
      },
      "geometry": {
        "type": "Point",
        "coordinates": [
          -2.1023046,
          57.1443073
        ]
      }
    },
    {
      "type": "Feature",
      "id": "node/2682691130",
      "properties": {
        "@id": "node/2682691130",
        "addr:housenumber": "4-6",
        "addr:postcode": "AB10 1XD",
        "addr:street": "Thistle Street",
        "amenity": "place_of_worship",
        "contact:website": "http://www.hebron-evangelical.co.uk/",
        "fhrs:id": "593016",
        "fhrs:localauthoritybusinessID": "EHDC4353",
        "name": "Hebron Evangelical Church",
        "religion": "christian",
        "source": "knowledge",
        "source:addr": "fhrs"
      },
      "geometry": {
        "type": "Point",
        "coordinates": [
          -2.1090154,
          57.1469639
        ]
      }
    },
    {
      "type": "Feature",
      "id": "node/2728335488",
      "properties": {
        "@id": "node/2728335488",
        "addr:city": "Aberdeen",
        "addr:country": "GB",
        "addr:housenumber": "28",
        "addr:postcode": "AB25 5AX",
        "addr:street": "King Street",
        "amenity": "place_of_worship",
        "building": "cathedral",
        "contact:website": "http://www.cathedral.aberdeen.anglican.org",
        "denomination": "anglican",
        "name": "St. Andrews Cathedral",
        "note": "taken denomination to be anglican, based on website url",
        "religion": "christian",
        "source": "survey; bing",
        "wikipedia": "en:\"St Andrew's Cathedral, Aberdeen\""
      },
      "geometry": {
        "type": "Point",
        "coordinates": [
          -2.0931232,
          57.1490614
        ]
      }
    },
    {
      "type": "Feature",
      "id": "node/2728596452",
      "properties": {
        "@id": "node/2728596452",
        "addr:housenumber": "6",
        "addr:postcode": "AB11 6HB",
        "addr:street": "Crown Street",
        "amenity": "pub",
        "fhrs:id": "623578",
        "fhrs:localauthoritybusinessID": "EHDC11279",
        "name": "The Stag",
        "source": "survey",
        "source:addr": "fhrs"
      },
      "geometry": {
        "type": "Point",
        "coordinates": [
          -2.103819,
          57.1447168
        ]
      }
    },
    {
      "type": "Feature",
      "id": "node/2728601001",
      "properties": {
        "@id": "node/2728601001",
        "addr:housenumber": "10",
        "addr:postcode": "AB11 6HB",
        "addr:street": "Crown Street",
        "alt_name": "shop@express",
        "fhrs:id": "593245",
        "fhrs:localauthoritybusinessID": "EHDC7339",
        "name": "Sweet News",
        "shop": "convenience",
        "source": "knowledge",
        "source:addr": "fhrs",
        "source:name": "survey"
      },
      "geometry": {
        "type": "Point",
        "coordinates": [
          -2.1036601,
          57.1445953
        ]
      }
    },
    {
      "type": "Feature",
      "id": "node/2762736751",
      "properties": {
        "@id": "node/2762736751",
        "addr:housenumber": "101",
        "addr:postcode": "AB11 6HH",
        "addr:street": "Crown Street",
        "fhrs:id": "593029",
        "fhrs:localauthoritybusinessID": "EHDC456",
        "name": "The Brentwood Hotel",
        "source:addr": "fhrs",
        "tourism": "hotel"
      },
      "geometry": {
        "type": "Point",
        "coordinates": [
          -2.1016762,
          57.1429129
        ]
      }
    },
    {
      "type": "Feature",
      "id": "node/2762736752",
      "properties": {
        "@id": "node/2762736752",
        "addr:housenumber": "91-95",
        "addr:postcode": "AB11 6HH",
        "addr:street": "Crown Street",
        "fhrs:id": "593028",
        "fhrs:localauthoritybusinessID": "EHDC455",
        "name": "The Highland Hotel",
        "source": "survey",
        "source:addr": "fhrs",
        "tourism": "hotel"
      },
      "geometry": {
        "type": "Point",
        "coordinates": [
          -2.1017674,
          57.1430641
        ]
      }
    },
    {
      "type": "Feature",
      "id": "node/2786505563",
      "properties": {
        "@id": "node/2786505563",
        "addr:housenumber": "75",
        "addr:street": "Crown Street",
        "fixme": "No fhrs data?",
        "name": "Highlander Guest House",
        "source": "survey; gps; bing",
        "source:addr": "survey",
        "tourism": "guest_house"
      },
      "geometry": {
        "type": "Point",
        "coordinates": [
          -2.102135,
          57.1437709
        ]
      }
    },
    {
      "type": "Feature",
      "id": "node/2805666578",
      "properties": {
        "@id": "node/2805666578",
        "addr:housenumber": "21",
        "addr:postcode": "AB11 6HD",
        "addr:street": "Crown Terrace",
        "amenity": "restaurant",
        "fhrs:id": "593630",
        "fhrs:localauthoritybusinessID": "EHDC9599",
        "name": "The Prime Cuts",
        "source": "survey; bing",
        "source:addr": "fhrs"
      },
      "geometry": {
        "type": "Point",
        "coordinates": [
          -2.1012386,
          57.1443289
        ]
      }
    },
    {
      "type": "Feature",
      "id": "node/2875406342",
      "properties": {
        "@id": "node/2875406342",
        "addr:housenumber": "25",
        "addr:postcode": "AB11 6HA",
        "addr:street": "Crown Street",
        "fhrs:id": "593137",
        "fhrs:localauthoritybusinessID": "EHDC6295",
        "fixme": "Unsure if cafe/pub/restaurant",
        "name": "Cafe D'Ag",
        "source": "survey",
        "source:addr": "fhrs"
      },
      "geometry": {
        "type": "Point",
        "coordinates": [
          -2.1028602,
          57.1442901
        ]
      }
    },
    {
      "type": "Feature",
      "id": "node/2875406343",
      "properties": {
        "@id": "node/2875406343",
        "addr:housenumber": "7",
        "addr:postcode": "AB11 6HA",
        "addr:street": "Crown Street",
        "alt_name": "The Office / No 7",
        "amenity": "stripclub",
        "contact:website": "http://www.number7club.co.uk/",
        "fhrs:id": "593708",
        "fhrs:localauthoritybusinessID": "EHDC9875",
        "name": "Number 7",
        "source": "survey (exterior)",
        "source:addr": "fhrs",
        "source:alt_name": "fhrs"
      },
      "geometry": {
        "type": "Point",
        "coordinates": [
          -2.1035305,
          57.1447434
        ]
      }
    },
    {
      "type": "Feature",
      "id": "node/2929721825",
      "properties": {
        "@id": "node/2929721825",
        "addr:housenumber": "67",
        "addr:postcode": "AB11 6EN",
        "addr:street": "Langstane Place",
        "amenity": "pub",
        "fhrs:id": "592669",
        "fhrs:localauthoritybusinessID": "EHDC11362",
        "name": "Amicus Apple",
        "source:addr": "fhrs"
      },
      "geometry": {
        "type": "Point",
        "coordinates": [
          -2.1084147,
          57.1426906
        ]
      }
    },
    {
      "type": "Feature",
      "id": "node/2931618806",
      "properties": {
        "@id": "node/2931618806",
        "addr:housenumber": "26",
        "addr:postcode": "AB11 5AH",
        "addr:street": "Regent Quay",
        "alt_name": "Crown & Anchor",
        "amenity": "pub",
        "fhrs:id": "592699",
        "fhrs:localauthoritybusinessID": "EHDC1305",
        "name": "Crown & Anchor Bar",
        "source": "survey",
        "source:addr": "fhrs",
        "source:alt_name": "fhrs",
        "source:position": "gps"
      },
      "geometry": {
        "type": "Point",
        "coordinates": [
          -2.092247,
          57.146404
        ]
      }
    },
    {
      "type": "Feature",
      "id": "node/2931618807",
      "properties": {
        "@id": "node/2931618807",
        "addr:housenumber": "30",
        "addr:postcode": "AB11 5AH",
        "addr:street": "Regent Quay",
        "amenity": "pub",
        "fhrs:id": "592700",
        "fhrs:localauthoritybusinessID": "EHDC1306",
        "name": "Regent Bridge Bar",
        "source": "survey",
        "source:addr": "fhrs",
        "source:position": "gps"
      },
      "geometry": {
        "type": "Point",
        "coordinates": [
          -2.092039,
          57.1464108
        ]
      }
    },
    {
      "type": "Feature",
      "id": "node/2959740433",
      "properties": {
        "@id": "node/2959740433",
        "addr:housenumber": "10-14",
        "addr:postcode": "AB10 1WE",
        "addr:street": "Union Terrace",
        "alt_name": "Thistle Aberdeen City Centre",
        "contact:website": "http://www.thistle.com/en/hotels/united_kingdom/aberdeen/thistle_aberdeen_city_centre/index.html",
        "fhrs:LocalAuthorityBusinessID": "EHDC3668",
        "fhrs:id": "592954",
        "fhrs:name": "Thistle Caledonian Hotel",
        "name": "The Caledonian",
        "operator": "Thistle",
        "source": "survey",
        "source:addr": "fhrs",
        "tourism": "hotel"
      },
      "geometry": {
        "type": "Point",
        "coordinates": [
          -2.1035534,
          57.1462958
        ]
      }
    },
    {
      "type": "Feature",
      "id": "node/3080858834",
      "properties": {
        "@id": "node/3080858834",
        "addr:city": "Aberdeen",
        "addr:country": "GB",
        "addr:housenumber": "24",
        "addr:postcode": "AB11 5PL",
        "addr:street": "Market Street",
        "alt_name": "Aberdeen's Best Kebab",
        "amenity": "fast_food",
        "fhrs:LocalAuthorityBusinessID": "EHDC7682",
        "fhrs:id": "593283",
        "name": "Aberdeen's Best Kebab",
        "note:name": "fhrs data varies on certificate and database",
        "source": "gps; survey",
        "source:addr": "fhrs; survey",
        "wheelchair": "no"
      },
      "geometry": {
        "type": "Point",
        "coordinates": [
          -2.0967319,
          57.1461326
        ]
      }
    },
    {
      "type": "Feature",
      "id": "node/3200014529",
      "properties": {
        "@id": "node/3200014529",
        "addr:city": "Aberdeen",
        "addr:housename": "Trinity Quay House",
        "addr:housenumber": "47053",
        "addr:postcode": "AB11 5PZ",
        "addr:street": "Market Street",
        "name": "Gamola Golf",
        "shop": "Golf",
        "website": "http://www.gamolagolf.co.uk/"
      },
      "geometry": {
        "type": "Point",
        "coordinates": [
          -2.0957611,
          57.1456584
        ]
      }
    },
    {
      "type": "Feature",
      "id": "node/3200026578",
      "properties": {
        "@id": "node/3200026578",
        "addr:city": "Aberdeen",
        "addr:housename": "Trinity Quay House",
        "addr:housenumber": "47053",
        "addr:postcode": "AB11 5PZ",
        "addr:street": "Market Street",
        "amenity": "bar",
        "name": "The Locker Room",
        "phone": "+44 1224 592900",
        "website": "http://www.gamolagolf.co.uk/"
      },
      "geometry": {
        "type": "Point",
        "coordinates": [
          -2.0957625,
          57.1456584
        ]
      }
    },
    {
      "type": "Feature",
      "id": "node/3200265670",
      "properties": {
        "@id": "node/3200265670",
        "addr:city": "Aberdeen",
        "addr:country": "GB",
        "addr:housenumber": "23",
        "addr:postcode": "AB11 6HU",
        "addr:street": "Windmill Brae",
        "amenity": "restaurant",
        "cuisine": "french",
        "email": "info@cafebohemerestaurant.co.uk",
        "name": "Caf Bohme",
        "opening_hours": "Tu-Sa 12:00-13:45, 18:00-21:00",
        "phone": "+44 1224 210677"
      },
      "geometry": {
        "type": "Point",
        "coordinates": [
          -2.1031049,
          57.1448727
        ]
      }
    },
    {
      "type": "Feature",
      "id": "node/3200265671",
      "properties": {
        "@id": "node/3200265671",
        "addr:city": "Aberdeen",
        "addr:country": "GB",
        "addr:housenumber": "25",
        "addr:street": "Windmill Brae",
        "amenity": "fast_food",
        "cuisine": "kebab",
        "name": "Pasha Grill",
        "phone": "+44 1224 467894"
      },
      "geometry": {
        "type": "Point",
        "coordinates": [
          -2.1033487,
          57.1448542
        ]
      }
    },
    {
      "type": "Feature",
      "id": "node/3200265672",
      "properties": {
        "@id": "node/3200265672",
        "addr:city": "Aberdeen",
        "addr:country": "GB",
        "addr:housenumber": "7",
        "addr:postcode": "AB11 6HA",
        "addr:street": "Crown Street",
        "amenity": "bar",
        "fixme": "Bar and Restaurant, unsure how to tag",
        "name": "The Office",
        "phone": "+44 1224 571475",
        "website": "http://www.theofficeaberdeen.co.uk/"
      },
      "geometry": {
        "type": "Point",
        "coordinates": [
          -2.1035619,
          57.1447447
        ]
      }
    },
    {
      "type": "Feature",
      "id": "node/3200265673",
      "properties": {
        "@id": "node/3200265673",
        "addr:city": "Aberdeen",
        "addr:country": "GB",
        "addr:housenumber": "27",
        "addr:street": "Windmill Brae",
        "amenity": "fast_food",
        "cuisine": "Kebab",
        "fixme": "Street address number: Unsure",
        "name": "The Sizzling Grill",
        "phone": "+44 1224 591 289"
      },
      "geometry": {
        "type": "Point",
        "coordinates": [
          -2.1034888,
          57.1448462
        ]
      }
    },
    {
      "type": "Feature",
      "id": "node/3200279618",
      "properties": {
        "@id": "node/3200279618",
        "addr:city": "Aberdeen",
        "addr:housenumber": "17-19",
        "addr:postcode": "AB11 6HU",
        "addr:street": "Windmill Brae",
        "amenity": "nightclub",
        "name": "The Garage",
        "phone": "+44 1224 587594",
        "smoking": "outside",
        "website": "http://garageabz.com/"
      },
      "geometry": {
        "type": "Point",
        "coordinates": [
          -2.1028565,
          57.1448953
        ]
      }
    },
    {
      "type": "Feature",
      "id": "node/3200552013",
      "properties": {
        "@id": "node/3200552013",
        "addr:housenumber": "90",
        "addr:postcode": "AB11 5BZ",
        "addr:street": "Shiprow",
        "alt_name": "Malone's",
        "amenity": "pub",
        "fhrs:id": "593720",
        "name": "Malones",
        "source": "survey",
        "source:addr": "fhrs"
      },
      "geometry": {
        "type": "Point",
        "coordinates": [
          -2.0957191,
          57.1459796
        ]
      }
    },
    {
      "type": "Feature",
      "id": "node/3200597809",
      "properties": {
        "@id": "node/3200597809",
        "addr:city": "Aberdeen",
        "addr:country": "GB",
        "addr:housenumber": "7",
        "addr:postcode": "AB11 6HU",
        "addr:street": "Windmill Brae",
        "amenity": "stripclub",
        "name": "Bugsy Brown's Club",
        "phone": "+44 1224 573587"
      },
      "geometry": {
        "type": "Point",
        "coordinates": [
          -2.1023337,
          57.1449472
        ]
      }
    },
    {
      "type": "Feature",
      "id": "node/3200614860",
      "properties": {
        "@id": "node/3200614860",
        "addr:city": "Aberdeen",
        "addr:country": "GB",
        "addr:housenumber": "3",
        "addr:postcode": "AB11 5AA",
        "addr:street": "3",
        "name": "Richard's Tattoo Studio",
        "opening_hours": "Mo-Sa 09:00 - 18:00",
        "phone": "+44 1224 575 599",
        "shop": "tattoo",
        "source": "survey; bing",
        "website": "http://www.richardstattoo.com/"
      },
      "geometry": {
        "type": "Point",
        "coordinates": [
          -2.0946879,
          57.1458986
        ]
      }
    },
    {
      "type": "Feature",
      "id": "node/3200623910",
      "properties": {
        "@id": "node/3200623910",
        "addr:city": "Aberdeen",
        "addr:country": "GB",
        "addr:housenumber": "40-42",
        "addr:postcode": "AB11 6HU",
        "addr:street": "Windmill Brae",
        "amenity": "nightclub",
        "name": "Origin Club",
        "phone": "+44 7859 031474",
        "website": "http://www.cluborigin.com/"
      },
      "geometry": {
        "type": "Point",
        "coordinates": [
          -2.1023572,
          57.1450044
        ]
      }
    },
    {
      "type": "Feature",
      "id": "node/3200675493",
      "properties": {
        "@id": "node/3200675493",
        "addr:city": "Aberdeen",
        "addr:country": "GB",
        "addr:housenumber": "2",
        "addr:postcode": "AB11 6HY",
        "addr:street": "Bath Street",
        "contact:phone": "+44 1224 592 299",
        "name": "Naked Pride",
        "shop": "hairdresser",
        "website": "http://www.nakedpride.co.uk/"
      },
      "geometry": {
        "type": "Point",
        "coordinates": [
          -2.1017654,
          57.1447955
        ]
      }
    },
    {
      "type": "Feature",
      "id": "node/3200675494",
      "properties": {
        "@id": "node/3200675494",
        "addr:city": "Aberdeen",
        "addr:country": "GB",
        "addr:housenumber": "1-3",
        "addr:postcode": "AB11 6BJ",
        "addr:street": "Bath Street",
        "name": "The Royal Hotel",
        "phone": "+44 1224 585 152",
        "tourism": "hotel"
      },
      "geometry": {
        "type": "Point",
        "coordinates": [
          -2.1020959,
          57.1448355
        ]
      }
    },
    {
      "type": "Feature",
      "id": "node/3200675495",
      "properties": {
        "@id": "node/3200675495",
        "addr:city": "Aberdeen",
        "addr:country": "GB",
        "addr:housenumber": "6",
        "addr:street": "Bath Street",
        "amenity": "fast_food",
        "cuisine": "Pizza and Kebab",
        "name": "To Go",
        "phone": "+44 1224 595 931"
      },
      "geometry": {
        "type": "Point",
        "coordinates": [
          -2.1020479,
          57.1449051
        ]
      }
    },
    {
      "type": "Feature",
      "id": "node/3200684765",
      "properties": {
        "@id": "node/3200684765",
        "addr:city": "Aberdeen",
        "addr:country": "GB",
        "addr:housenumber": "9",
        "addr:postcode": "AB11 6HZ",
        "addr:street": "Bridge Place",
        "amenity": "pub",
        "name": "Riley's Sports Bar & Bingo Club",
        "opening_hours": "12:00 - 00:00",
        "phone": "+44 1224 591542",
        "website": "http://www.rileys.co.uk/clubs/1-rileys-sports-bar-bingo-club-aberdeen/"
      },
      "geometry": {
        "type": "Point",
        "coordinates": [
          -2.1022977,
          57.144624
        ]
      }
    },
    {
      "type": "Feature",
      "id": "node/3201301963",
      "properties": {
        "@id": "node/3201301963",
        "addr:city": "Aberdeen",
        "addr:country": "GB",
        "addr:housenumber": "18-20",
        "addr:postcode": "AB11 5PL",
        "addr:street": "Market Street",
        "name": "Bright House",
        "opening_hours": "Mo-Sa 09:00 - 17:30",
        "phone": "+44 1224 595 417",
        "shop": "electronics"
      },
      "geometry": {
        "type": "Point",
        "coordinates": [
          -2.0968633,
          57.1462505
        ]
      }
    },
    {
      "type": "Feature",
      "id": "node/3201301964",
      "properties": {
        "@id": "node/3201301964",
        "addr:city": "Aberdeen",
        "addr:country": "GB",
        "addr:housenumber": "31-33",
        "addr:postcode": "AB11 5PY",
        "addr:street": "Market Street",
        "name": "Jessops",
        "phone": "+44 1224 211 285",
        "shop": "electronics",
        "website": "http://www.jessops.com/"
      },
      "geometry": {
        "type": "Point",
        "coordinates": [
          -2.0964241,
          57.1462038
        ]
      }
    },
    {
      "type": "Feature",
      "id": "node/3201301965",
      "properties": {
        "@id": "node/3201301965",
        "addr:city": "Aberdeen",
        "addr:country": "GB",
        "addr:housenumber": "57-63",
        "addr:postcode": "AB10 1BB",
        "addr:street": "Union Street",
        "name": "SportsDirect.com",
        "phone": "+44 8443 325 074",
        "shop": "sports",
        "source": "Survey",
        "website": "http://www.sportsdirect.com/AberdeenUnionSt-store-0074",
        "wheelchair": "yes"
      },
      "geometry": {
        "type": "Point",
        "coordinates": [
          -2.0971135,
          57.1468897
        ]
      }
    },
    {
      "type": "Feature",
      "id": "node/3201322087",
      "properties": {
        "@id": "node/3201322087",
        "addr:city": "Aberdeen",
        "addr:country": "GB",
        "addr:housenumber": "39",
        "addr:postcode": "AB11 5PY",
        "addr:street": "Market Street",
        "name": "Framing Point",
        "phone": "+44 1224 581 297",
        "shop": "frame"
      },
      "geometry": {
        "type": "Point",
        "coordinates": [
          -2.0962246,
          57.146038
        ]
      }
    },
    {
      "type": "Feature",
      "id": "node/3201322088",
      "properties": {
        "@id": "node/3201322088",
        "addr:city": "Aberdeen",
        "addr:country": "GB",
        "addr:housenumber": "9",
        "addr:postcode": "AB11 5PD",
        "addr:street": "9",
        "name": "Micasa ApartHotel",
        "phone": "+44 1224 565 950",
        "tourism": "hotel",
        "website": "http://www.micasaaparthotel.co.uk/"
      },
      "geometry": {
        "type": "Point",
        "coordinates": [
          -2.0970005,
          57.146675
        ]
      }
    },
    {
      "type": "Feature",
      "id": "node/3201322089",
      "properties": {
        "@id": "node/3201322089",
        "addr:city": "Aberdeen",
        "addr:country": "GB",
        "addr:housenumber": "17",
        "addr:postcode": "AB11 5PY",
        "addr:street": "Market Street",
        "amenity": "restaurant",
        "name": "Rox Grill Room",
        "phone": "+44 1224 212 224",
        "website": "http://www.roxhotel.com/"
      },
      "geometry": {
        "type": "Point",
        "coordinates": [
          -2.0965245,
          57.1462911
        ]
      }
    },
    {
      "type": "Feature",
      "id": "node/3201322090",
      "properties": {
        "@id": "node/3201322090",
        "addr:city": "Aberdeen",
        "addr:country": "GB",
        "addr:housenumber": "17",
        "addr:postcode": "AB11 5PY",
        "addr:street": "Market Street",
        "name": "Rox Hotel",
        "phone": "+44 1224 212 224",
        "tourism": "hotel",
        "website": "http://www.roxhotel.com/"
      },
      "geometry": {
        "type": "Point",
        "coordinates": [
          -2.0966815,
          57.1464179
        ]
      }
    },
    {
      "type": "Feature",
      "id": "node/3201322091",
      "properties": {
        "@id": "node/3201322091",
        "addr:city": "Aberdeen",
        "addr:country": "GB",
        "addr:housenumber": "35",
        "addr:postcode": "AB11 5PY",
        "addr:street": "Market Street",
        "name": "Waves Hair Studio",
        "phone": "+44 1224 574 223",
        "shop": "hairdresser"
      },
      "geometry": {
        "type": "Point",
        "coordinates": [
          -2.0963251,
          57.1461228
        ]
      }
    },
    {
      "type": "Feature",
      "id": "node/3201341401",
      "properties": {
        "@id": "node/3201341401",
        "addr:city": "Aberdeen",
        "addr:country": "GB",
        "addr:housenumber": "26",
        "addr:postcode": "AB11 5PL",
        "addr:street": "Market Street",
        "name": "William Hill",
        "opening_hours": "Mo-Sa 09:30 - 22:00; Su 10:00 - 18:15",
        "phone": "+44 8705 181 715",
        "shop": "bookmaker",
        "website": "http://www.williamhill.com"
      },
      "geometry": {
        "type": "Point",
        "coordinates": [
          -2.0966515,
          57.1460744
        ]
      }
    },
    {
      "type": "Feature",
      "id": "node/3201369765",
      "properties": {
        "@id": "node/3201369765",
        "addr:city": "Aberdeen",
        "addr:country": "GB",
        "addr:housenumber": "43-45",
        "addr:postcode": "AB11 5EL",
        "addr:street": "Market Street",
        "name": "Aberdeen Douglas Hotel",
        "phone": "+44 1224 582 255",
        "tourism": "hotel",
        "website": "http://www.aberdeendouglas.com"
      },
      "geometry": {
        "type": "Point",
        "coordinates": [
          -2.0960816,
          57.1459195
        ]
      }
    },
    {
      "type": "Feature",
      "id": "node/3201369766",
      "properties": {
        "@id": "node/3201369766",
        "addr:city": "Aberdeen",
        "addr:country": "GB",
        "addr:housenumber": "32-34",
        "addr:postcode": "AB11 5PL",
        "addr:street": "Market Street",
        "name": "Grampian Health Store",
        "phone": "+44 1224 590 886",
        "shop": "chemist"
      },
      "geometry": {
        "type": "Point",
        "coordinates": [
          -2.0965468,
          57.1459696
        ]
      }
    },
    {
      "type": "Feature",
      "id": "node/3201369767",
      "properties": {
        "@id": "node/3201369767",
        "addr:city": "Aberdeen",
        "addr:country": "GB",
        "addr:housenumber": "30",
        "addr:postcode": "AB11 5PL",
        "addr:street": "Market Street",
        "name": "Tan 2000",
        "phone": "+44 1224 585 822",
        "shop": "beauty"
      },
      "geometry": {
        "type": "Point",
        "coordinates": [
          -2.096622,
          57.1460351
        ]
      }
    },
    {
      "type": "Feature",
      "id": "node/3201369768",
      "properties": {
        "@id": "node/3201369768",
        "addr:city": "Aberdeen",
        "addr:country": "GB",
        "addr:housenumber": "42-44",
        "addr:postcode": "AB11 5PL",
        "addr:street": "Market Street",
        "amenity": "pub",
        "name": "The Gas Lamp",
        "phone": "+44 1224 588 773"
      },
      "geometry": {
        "type": "Point",
        "coordinates": [
          -2.0963162,
          57.1457921
        ]
      }
    },
    {
      "type": "Feature",
      "id": "node/3201525747",
      "properties": {
        "@id": "node/3201525747",
        "addr:city": "Aberdeen",
        "addr:country": "GB",
        "addr:housenumber": "55",
        "addr:postcode": "AB11 5BJ",
        "addr:street": "Union Street",
        "name": "Greggs",
        "opening_hours": "Mo-Fr 07:00 - 18:00; Sa 08:00 - 18:00; Su 10:00 - 17:00",
        "phone": "+44 1224 589 923",
        "shop": "bakery"
      },
      "geometry": {
        "type": "Point",
        "coordinates": [
          -2.0965814,
          57.1470039
        ]
      }
    },
    {
      "type": "Feature",
      "id": "node/3201606785",
      "properties": {
        "@id": "node/3201606785",
        "addr:city": "Aberdeen",
        "addr:country": "GB",
        "addr:housenumber": "35",
        "addr:street": "Castle Street",
        "contact:phone": "+441224594269",
        "name": "Chalmers Bakery",
        "shop": "bakery",
        "source": "survey"
      },
      "geometry": {
        "type": "Point",
        "coordinates": [
          -2.092123,
          57.1480974
        ]
      }
    },
    {
      "type": "Feature",
      "id": "node/3201606786",
      "properties": {
        "@id": "node/3201606786",
        "addr:city": "Aberdeen",
        "addr:country": "GB",
        "addr:housenumber": "33",
        "addr:postcode": "AB11 5BB",
        "addr:street": "Castle Street",
        "contact:phone": "+441224581925",
        "contact:website": "http://www.martinmccoll.co.uk/",
        "name": "McColls",
        "opening_hours": "Mo-Tu,Th 07:00-18:00;We,Fr-Sa 07:00-19:00;Su 10:00-16:00",
        "phone": "+441224581925",
        "shop": "convenience",
        "source": "survey"
      },
      "geometry": {
        "type": "Point",
        "coordinates": [
          -2.0920418,
          57.1481178
        ]
      }
    },
    {
      "type": "Feature",
      "id": "node/3201606787",
      "properties": {
        "@id": "node/3201606787",
        "addr:city": "Aberdeen",
        "addr:country": "GB",
        "addr:housenumber": "45",
        "addr:postcode": "AB11 5YU",
        "addr:street": "Castle Street",
        "contact:phone": "+441224358603",
        "contact:website": "http://www.vsa.org.uk/vsa/news/mercat-bookshop.html",
        "name": "Mercat Bookshop",
        "opening_hours": "Mo-Sa 10:00-15:30",
        "phone": "+441224358603",
        "shop": "books",
        "source": "survey"
      },
      "geometry": {
        "type": "Point",
        "coordinates": [
          -2.0927444,
          57.1479207
        ]
      }
    },
    {
      "type": "Feature",
      "id": "node/3201606788",
      "properties": {
        "@id": "node/3201606788",
        "addr:city": "Aberdeen",
        "addr:country": "GB",
        "addr:housenumber": "40/48",
        "addr:postcode": "AB11 1HH",
        "addr:street": "Castle Street",
        "amenity": "bank",
        "name": "TSB",
        "opening_hours": "Mo-Tu 09:30-16:00;We 09:30-17:30;Th 09:30-17:30;Fr 09:30-17:00;Sa 09:30-13:30"
      },
      "geometry": {
        "type": "Point",
        "coordinates": [
          -2.0928677,
          57.1478781
        ]
      }
    },
    {
      "type": "Feature",
      "id": "node/3201606789",
      "properties": {
        "@id": "node/3201606789",
        "addr:city": "Aberdeen",
        "addr:country": "GB",
        "addr:housenumber": "38",
        "addr:postcode": "AB11 5YU",
        "addr:street": "Castle Street",
        "contact:phone": "+441224212021",
        "contact:website": "http://www.vsa.org.uk",
        "name": "VSA",
        "office": "association",
        "opening_hours": "Mo-Fr 09:00-17:00",
        "phone": "+441224212021",
        "source": "survey"
      },
      "geometry": {
        "type": "Point",
        "coordinates": [
          -2.0922544,
          57.1480517
        ]
      }
    },
    {
      "type": "Feature",
      "id": "node/3201618814",
      "properties": {
        "@id": "node/3201618814",
        "addr:city": "Aberdeen",
        "addr:housenumber": "14",
        "addr:postcode": "AB24 5AX",
        "addr:street": "King Street",
        "amenity": "fast_food",
        "cuisine": "chinese",
        "name": "Golden House",
        "opening_hours": "Mo, We-Su 16:30-23:00; Mo, We-Fr 12:00-14:00",
        "phone": "+44 1224 620 655"
      },
      "geometry": {
        "type": "Point",
        "coordinates": [
          -2.0932756,
          57.1485952
        ]
      }
    },
    {
      "type": "Feature",
      "id": "node/3201618815",
      "properties": {
        "@id": "node/3201618815",
        "addr:city": "Aberdeen",
        "addr:housenumber": "12",
        "addr:postcode": "AB24 5AX",
        "addr:street": "King Street",
        "amenity": "atm",
        "cash_in": "no",
        "fee": "no"
      },
      "geometry": {
        "type": "Point",
        "coordinates": [
          -2.0932638,
          57.1485447
        ]
      }
    },
    {
      "type": "Feature",
      "id": "node/3201618818",
      "properties": {
        "@id": "node/3201618818",
        "addr:city": "Aberdeen",
        "addr:housenumber": "12",
        "addr:postcode": "AB24 5AX",
        "addr:street": "King Street",
        "name": "Vitamin Shop",
        "opening_hours": "Mo-Fr 11:00-19:30; Sa 10:00-19:00; Su 11:00-17:00",
        "phone": "+44 1224 379 911",
        "shop": "chemist"
      },
      "geometry": {
        "type": "Point",
        "coordinates": [
          -2.0932638,
          57.148568
        ]
      }
    },
    {
      "type": "Feature",
      "id": "node/3201719885",
      "properties": {
        "@id": "node/3201719885",
        "accommodation": "yes",
        "addr:city": "Aberdeen",
        "addr:country": "GB",
        "addr:housenumber": "15",
        "addr:postcode": "AB10 1RJ",
        "addr:street": "North Silver Street",
        "amenity": "pub",
        "name": "The Globe Inn",
        "operator": "Belhaven Pubs",
        "phone": "+44 1224 624 258",
        "website": "http://www.theglobeinn-aberdeen.co.uk/"
      },
      "geometry": {
        "type": "Point",
        "coordinates": [
          -2.1058826,
          57.1466969
        ]
      }
    },
    {
      "type": "Feature",
      "id": "node/3201719886",
      "properties": {
        "@id": "node/3201719886",
        "addr:city": "Aberdeen",
        "addr:country": "GB",
        "addr:housenumber": "11",
        "addr:postcode": "AB10 1RJ",
        "addr:street": "North Silver Street",
        "amenity": "pub",
        "name": "Under The Hammer",
        "opening_hours": "Mo-We 17:00-00:00; Th 17:00 - 01:00; Fr 16:00-01:00; Sa 14:00-01:00; Su 18:00 - 00:00",
        "real_ales": "yes"
      },
      "geometry": {
        "type": "Point",
        "coordinates": [
          -2.105799,
          57.1466096
        ]
      }
    },
    {
      "type": "Feature",
      "id": "node/3201781770",
      "properties": {
        "@id": "node/3201781770",
        "addr:city": "Aberdeen",
        "addr:country": "GB",
        "addr:housenumber": "29-31",
        "addr:postcode": "AB10 1AP",
        "addr:street": "Queen Street",
        "name": "McKay's of Queen Street",
        "phone": "+44 1224 643 136",
        "shop": "hardware",
        "website": "http://www.mckaysofqueenstreet.moonfruit.com/"
      },
      "geometry": {
        "type": "Point",
        "coordinates": [
          -2.0955156,
          57.1489184
        ]
      }
    },
    {
      "type": "Feature",
      "id": "node/3201880624",
      "properties": {
        "@id": "node/3201880624",
        "addr:city": "Aberdeen",
        "addr:country": "GB",
        "addr:housenumber": "44",
        "addr:street": "Castle Street",
        "source": "survey"
      },
      "geometry": {
        "type": "Point",
        "coordinates": [
          -2.0926048,
          57.1479688
        ]
      }
    },
    {
      "type": "Feature",
      "id": "node/3201943806",
      "properties": {
        "@id": "node/3201943806",
        "addr:city": "Aberdeen",
        "addr:country": "GB",
        "addr:housenumber": "10",
        "addr:street": "Marischal Street",
        "name": "Amber & Jade's Hair Design",
        "phone": "+44 1224 593 764",
        "shop": "hairdresser"
      },
      "geometry": {
        "type": "Point",
        "coordinates": [
          -2.0931399,
          57.1475153
        ]
      }
    },
    {
      "type": "Feature",
      "id": "node/3201943807",
      "properties": {
        "@id": "node/3201943807",
        "addr:city": "Aberdeen",
        "addr:country": "GB",
        "addr:housenumber": "32",
        "addr:postcode": "AB11 5AJ",
        "addr:street": "Marischal Street",
        "name": "Catzy",
        "opening_hours": "Mo-Fr 10:00-20:00; Sa 10:00-17:00; Su 12:00-19:00",
        "phone": "+44 1224 576 249",
        "shop": "beauty"
      },
      "geometry": {
        "type": "Point",
        "coordinates": [
          -2.0927436,
          57.1472281
        ]
      }
    },
    {
      "type": "Feature",
      "id": "node/3201943808",
      "properties": {
        "@id": "node/3201943808",
        "addr:city": "Aberdeen",
        "addr:country": "GB",
        "addr:housenumber": "50",
        "addr:postcode": "AB11 5AL",
        "addr:street": "Marischal Street",
        "amenity": "place_of_worship",
        "building": "church",
        "denomination": "pentecostal",
        "name": "Elim Pentecostal Church",
        "phone": "+44 1224 592 433",
        "religion": "christian",
        "website": "http://www.aberdeen-elim.org.uk/"
      },
      "geometry": {
        "type": "Point",
        "coordinates": [
          -2.0919993,
          57.1465878
        ]
      }
    },
    {
      "type": "Feature",
      "id": "node/3201943809",
      "properties": {
        "@id": "node/3201943809",
        "addr:city": "Aberdeen",
        "addr:country": "GB",
        "addr:housenumber": "16",
        "addr:postcode": "AB11 5AJ",
        "addr:street": "Marischal Street",
        "craft": "dressmaker",
        "name": "Gloria Valentine",
        "phone": "+44 1224 584 141"
      },
      "geometry": {
        "type": "Point",
        "coordinates": [
          -2.0930488,
          57.1474477
        ]
      }
    },
    {
      "type": "Feature",
      "id": "node/3201943810",
      "properties": {
        "@id": "node/3201943810",
        "addr:city": "Aberdeen",
        "addr:country": "GB",
        "addr:housenumber": "24-26",
        "addr:postcode": "AB11 5AJ",
        "addr:street": "Marischal Street",
        "name": "Grampian Accomodation Agency",
        "office": "estate_agent",
        "phone": "+44 1224 594 594",
        "website": "http://www.gaa.uk.com"
      },
      "geometry": {
        "type": "Point",
        "coordinates": [
          -2.0929055,
          57.1473396
        ]
      }
    },
    {
      "type": "Feature",
      "id": "node/3201943811",
      "properties": {
        "@id": "node/3201943811",
        "addr:city": "Aberdeen",
        "addr:country": "GB",
        "addr:housenumber": "20",
        "addr:postcode": "AB11 5AJ",
        "addr:street": "Marischal Street",
        "name": "Gundra Beauty",
        "phone": "+44 1224 593 693",
        "shop": "beauty"
      },
      "geometry": {
        "type": "Point",
        "coordinates": [
          -2.092999,
          57.1474106
        ]
      }
    },
    {
      "type": "Feature",
      "id": "node/3201943812",
      "properties": {
        "@id": "node/3201943812",
        "addr:city": "Aberdeen",
        "addr:country": "GB",
        "addr:housenumber": "12",
        "addr:postcode": "AB11 5AJ",
        "addr:street": "Marischal Street"
      },
      "geometry": {
        "type": "Point",
        "coordinates": [
          -2.0931091,
          57.1475022
        ]
      }
    },
    {
      "type": "Feature",
      "id": "node/3201943813",
      "properties": {
        "@id": "node/3201943813",
        "addr:city": "Aberdeen",
        "addr:country": "GB",
        "addr:housenumber": "14",
        "addr:postcode": "AB11 5AJ",
        "addr:street": "Marischal Street"
      },
      "geometry": {
        "type": "Point",
        "coordinates": [
          -2.0930761,
          57.1474836
        ]
      }
    },
    {
      "type": "Feature",
      "id": "node/3201943814",
      "properties": {
        "@id": "node/3201943814",
        "addr:city": "Aberdeen",
        "addr:country": "GB",
        "addr:housenumber": "18",
        "addr:postcode": "AB11 5AJ",
        "addr:street": "Marischal Street"
      },
      "geometry": {
        "type": "Point",
        "coordinates": [
          -2.0930122,
          57.1474299
        ]
      }
    },
    {
      "type": "Feature",
      "id": "node/3201943815",
      "properties": {
        "@id": "node/3201943815",
        "addr:city": "Aberdeen",
        "addr:country": "GB",
        "addr:housenumber": "22",
        "addr:postcode": "AB11 5AJ",
        "addr:street": "Marischal Street"
      },
      "geometry": {
        "type": "Point",
        "coordinates": [
          -2.0929362,
          57.1473594
        ]
      }
    },
    {
      "type": "Feature",
      "id": "node/3201943816",
      "properties": {
        "@id": "node/3201943816",
        "addr:city": "Aberdeen",
        "addr:country": "GB",
        "addr:housenumber": "30",
        "addr:postcode": "AB11 5AJ",
        "addr:street": "Marischal Street"
      },
      "geometry": {
        "type": "Point",
        "coordinates": [
          -2.0927678,
          57.1472525
        ]
      }
    },
    {
      "type": "Feature",
      "id": "node/3201943817",
      "properties": {
        "@id": "node/3201943817",
        "addr:city": "Aberdeen",
        "addr:country": "GB",
        "addr:housenumber": "21",
        "addr:postcode": "AB11 5AD",
        "addr:street": "Marischal Street",
        "name": "Scottish & Ancient",
        "opening_hours": "Sa 09:00 - 15:00; Su 11:00 - 15:00",
        "phone": "+44 7517 974 695",
        "shop": "antiques"
      },
      "geometry": {
        "type": "Point",
        "coordinates": [
          -2.0928052,
          57.1474753
        ]
      }
    },
    {
      "type": "Feature",
      "id": "node/3201943818",
      "properties": {
        "@id": "node/3201943818",
        "addr:city": "Aberdeen",
        "addr:country": "GB",
        "addr:housename": "Provost Young's House",
        "addr:housenumber": "28",
        "addr:postcode": "AB11 5AJ",
        "addr:street": "Marischal Street",
        "alt_name": "Stan Gerard Healer and Hypnotherapist",
        "amenity": "clinic",
        "name": "Serendipity",
        "phone": "+44 1224 213 808"
      },
      "geometry": {
        "type": "Point",
        "coordinates": [
          -2.0928059,
          57.1472687
        ]
      }
    },
    {
      "type": "Feature",
      "id": "node/3201943819",
      "properties": {
        "@id": "node/3201943819",
        "addr:city": "Aberdeen",
        "addr:country": "GB",
        "addr:housenumber": "13",
        "addr:postcode": "AB11 5AD",
        "addr:street": "Marischal Street",
        "name": "Silly Bears",
        "opening_hours": "We-Sa 11:00 - 17:30",
        "phone": "+44 1224 582 220",
        "shop": "toys",
        "website": "http://www.sillybears.co.uk/"
      },
      "geometry": {
        "type": "Point",
        "coordinates": [
          -2.0929406,
          57.1475673
        ]
      }
    },
    {
      "type": "Feature",
      "id": "node/3202015899",
      "properties": {
        "@id": "node/3202015899",
        "addr:city": "Aberdeen",
        "addr:country": "GB",
        "addr:housenumber": "46",
        "addr:postcode": "AB11 5QE",
        "addr:street": "Market Street",
        "amenity": "spa",
        "name": "Citispa",
        "opening_hours": "Tu-Fr 10:00 - 20:00; Sa-Mo 10:00-18:00",
        "phone": "+44 1224 531 105",
        "website": "http://www.citispa.co.uk"
      },
      "geometry": {
        "type": "Point",
        "coordinates": [
          -2.0961011,
          57.1457045
        ]
      }
    },
    {
      "type": "Feature",
      "id": "node/3202015900",
      "properties": {
        "@id": "node/3202015900",
        "addr:city": "Aberdeen",
        "addr:country": "GB",
        "addr:housenumber": "48",
        "addr:postcode": "AB11 5QE",
        "addr:street": "Market Street"
      },
      "geometry": {
        "type": "Point",
        "coordinates": [
          -2.096035,
          57.1456458
        ]
      }
    },
    {
      "type": "Feature",
      "id": "node/3202015901",
      "properties": {
        "@id": "node/3202015901",
        "addr:city": "Aberdeen",
        "addr:country": "GB",
        "addr:housenumber": "50",
        "addr:postcode": "AB11 5QE",
        "addr:street": "Market Street",
        "old_name": "Fish Expert Fish & Chips"
      },
      "geometry": {
        "type": "Point",
        "coordinates": [
          -2.0959655,
          57.1455816
        ]
      }
    },
    {
      "type": "Feature",
      "id": "node/3202015902",
      "properties": {
        "@id": "node/3202015902",
        "addr:city": "Aberdeen",
        "addr:country": "GB",
        "addr:housenumber": "52",
        "addr:postcode": "AB11 5QE",
        "addr:street": "Market Street"
      },
      "geometry": {
        "type": "Point",
        "coordinates": [
          -2.0958843,
          57.1455229
        ]
      }
    },
    {
      "type": "Feature",
      "id": "node/3328291778",
      "properties": {
        "@id": "node/3328291778",
        "addr:city": "Aberdeen",
        "addr:housenumber": "46",
        "addr:postcode": "AB10 1BD",
        "addr:street": "Union Street",
        "name": "CeX",
        "opening_hours:url": "https://uk.webuy.com/stores/store_details.php?branchId=197",
        "operator": "CeX",
        "payment:bitcoin": "yes",
        "shop": "electronics"
      },
      "geometry": {
        "type": "Point",
        "coordinates": [
          -2.0965252,
          57.1473186
        ]
      }
    },
    {
      "type": "Feature",
      "id": "node/3342048293",
      "properties": {
        "@id": "node/3342048293",
        "addr:city": "Aberdeen",
        "addr:housenumber": "210",
        "addr:postcode": "AB11 5PQ",
        "addr:street": "Market Street",
        "amenity": "restaurant",
        "fhrs:id": "150309",
        "name": "210 Bistro"
      },
      "geometry": {
        "type": "Point",
        "coordinates": [
          -2.091767,
          57.1420676
        ]
      }
    },
    {
      "type": "Feature",
      "id": "node/3358735619",
      "properties": {
        "@id": "node/3358735619",
        "addr:city": "Aberdeen",
        "addr:housenumber": "214",
        "addr:postcode": "AB10 1TL",
        "addr:street": "Union Street",
        "name": "Accenture",
        "office": "company",
        "phone": "+44 20 7844 1111",
        "website": "http://www.accenture.com/"
      },
      "geometry": {
        "type": "Point",
        "coordinates": [
          -2.1059881,
          57.1447166
        ]
      }
    },
    {
      "type": "Feature",
      "id": "node/3363274808",
      "properties": {
        "@id": "node/3363274808",
        "addr:city": "Aberdeen",
        "addr:housenumber": "152",
        "addr:postcode": "AB10 1QT",
        "addr:street": "Union Street",
        "alt_name": "Kentucky Fried Chicken",
        "amenity": "fast_food",
        "cuisine": "chicken",
        "name": "KFC",
        "smoking": "no",
        "source": "survey",
        "takeaway": "yes"
      },
      "geometry": {
        "type": "Point",
        "coordinates": [
          -2.1033344,
          57.1454211
        ]
      }
    },
    {
      "type": "Feature",
      "id": "node/3417588507",
      "properties": {
        "@id": "node/3417588507",
        "addr:housenumber": "62",
        "addr:street": "Market Street",
        "name": "The Exchange"
      },
      "geometry": {
        "type": "Point",
        "coordinates": [
          -2.0948138,
          57.1443276
        ]
      }
    },
    {
      "type": "Feature",
      "id": "node/3488965949",
      "properties": {
        "@id": "node/3488965949",
        "addr:city": "Aberdeen",
        "addr:housenumber": "257",
        "addr:postcode": "AB11 6BR",
        "addr:street": "Union Street",
        "amenity": "restaurant",
        "cuisine": "italian",
        "name": "Amarone",
        "website": "http://www.amaronerestaurant.co.uk/"
      },
      "geometry": {
        "type": "Point",
        "coordinates": [
          -2.1057666,
          57.1444184
        ]
      }
    },
    {
      "type": "Feature",
      "id": "node/3502766632",
      "properties": {
        "@id": "node/3502766632",
        "addr:housenumber": "234",
        "addr:street": "Union Street",
        "name": "Pret A Manger",
        "opening_hours": "Mo-Fr 06:30-18:30; Sa 08:00-17:00; Su 09:00-17:00"
      },
      "geometry": {
        "type": "Point",
        "coordinates": [
          -2.1070712,
          57.1443902
        ]
      }
    },
    {
      "type": "Feature",
      "id": "node/3673866625",
      "properties": {
        "@id": "node/3673866625",
        "addr:housenumber": "3-5",
        "addr:street": "Rose Street",
        "amenity": "restaurant",
        "name": "Meze House",
        "phone": "01224622244",
        "website": "www.mezehouse.co.uk"
      },
      "geometry": {
        "type": "Point",
        "coordinates": [
          -2.1109117,
          57.1434992
        ]
      }
    },
    {
      "type": "Feature",
      "id": "node/4068835251",
      "properties": {
        "@id": "node/4068835251",
        "addr:housenumber": "1",
        "addr:postcode": "AB10 1JN",
        "addr:street": "Back Wynd",
        "alt_name": "99 Bar & Kitchen",
        "amenity": "pub",
        "fhrs:id": "457151",
        "name": "Ninety-Nine Bar & Kitchen",
        "source:addr": "FHRS"
      },
      "geometry": {
        "type": "Point",
        "coordinates": [
          -2.0999478,
          57.1464321
        ]
      }
    }
  ]
}